OBJECT_NAME,OBJECT_ID,EPOCH,MEAN_MOTION,ECCENTRICITY,INCLINATION,RA_OF_ASC_NODE,ARG_OF_PERICENTER,MEAN_ANOMALY,EPHEMERIS_TYPE,CLASSIFICATION_TYPE,NORAD_CAT_ID,ELEMENT_SET_NO,REV_AT_EPOCH,BSTAR,MEAN_MOTION_DOT,MEAN_MOTION_DDOT
QIANFAN-79,2025-046G,2026-07-11T17:20:26.626560,13.51018628,.00133835,88.9727,298.2174,230.8687,129.1275,0,U,63165,999,7586,.1371769E-3,.101E-5,0
QIANFAN-80,2025-046H,2026-07-11T17:44:15.941760,13.51015869,.00120893,88.9724,297.9169,235.1317,124.8699,0,U,63166,999,7602,.14088407E-3,.103E-5,0
QIANFAN-81,2025-046J,2026-07-11T19:01:04.444320,13.51023359,.00137288,88.9723,297.9789,223.9809,136.0251,0,U,63167,999,7598,.12683714E-3,.94E-6,0
QIANFAN-82,2025-046K,2026-07-11T18:01:51.318624,13.51017793,.00113487,88.9724,298.0272,230.2321,129.7831,0,U,63168,999,7596,.11994431E-3,.89E-6,0
QIANFAN-83,2025-046L,2026-07-11T18:17:45.598848,13.62050014,.001365,88.9725,297.3869,202.8404,157.2148,0,U,63169,999,7632,.13560868E-3,.117E-5,0
QIANFAN-84,2025-046M,2026-07-11T18:43:45.016896,13.51043549,.00145313,88.9724,298.1569,228.0547,131.9366,0,U,63170,999,7589,.13214219E-3,.97E-6,0
QIANFAN-85,2025-046N,2026-07-11T18:37:22.615680,13.51015581,.00119001,88.9723,298.0274,229.2035,130.8085,0,U,63171,999,7596,.13538292E-3,.99E-6,0
QIANFAN-86,2025-046P,2026-07-11T18:49:17.642208,13.51022961,.00096163,88.9725,297.8937,232.0781,127.9502,0,U,63172,999,7604,.87757391E-4,.69E-6,0
QIANFAN-87,2025-046Q,2026-07-11T18:07:51.936672,13.51008523,.00103082,88.9722,298.0004,227.1930,132.8355,0,U,63173,999,7597,.12422205E-3,.92E-6,0
QIANFAN-88,2025-046R,2026-07-11T18:31:35.395680,13.51016269,.00104771,88.9724,297.9585,237.0200,122.9944,0,U,63174,999,7600,.1406563E-3,.103E-5,0
QIANFAN-89,2025-046S,2026-07-11T17:38:08.111904,13.51023439,.00153369,88.9724,298.1513,229.0601,130.9224,0,U,63175,999,7589,.14703399E-3,.107E-5,0
QIANFAN-90,2025-046T,2026-07-11T18:19:34.628736,13.51015633,.00123363,88.9724,298.1213,225.7607,134.2532,0,U,63176,999,7591,.14857009E-3,.108E-5,0
PUNCH-NFI (SMEX 15A),2025-047A,2026-07-11T12:03:10.749600,14.74794792,.0012495,97.9568,17.5494,81.7312,278.5314,0,U,63178,999,7166,.48225883E-4,.273E-5,0
PUNCH-WFI 1 (SMEX 15B),2025-047B,2026-07-11T11:42:10.971936,14.74375364,.00104191,97.9587,17.3763,98.8146,261.4243,0,U,63179,999,7164,.51590737E-4,.292E-5,0
PUNCH-WFI 3 (SMEX 15D),2025-047C,2026-07-11T12:14:55.478112,14.74376925,.00114746,97.9550,17.1030,90.8494,269.4030,0,U,63180,999,7164,.51182414E-4,.29E-5,0
PUNCH-WFI 2 (SMEX 15C),2025-047D,2026-07-10T23:46:06.928608,14.74376658,.00107629,97.9571,16.6664,104.0426,256.1980,0,U,63181,999,7156,.51643444E-4,.293E-5,0
SPHEREX (MIDEX 9),2025-047E,2026-07-11T11:41:08.490912,14.74109879,.00116745,97.9581,16.8638,112.4178,247.8269,0,U,63182,999,7162,.90121607E-4,.544E-5,0
STARLINK-11602 [DTC],2025-048A,2026-07-11T08:00:00.914688,15.70931315,.00015094,42.9999,294.9275,265.4281,94.6415,0,U,63183,999,7758,.12146049E-2,.159028E-2,0
STARLINK-11617 [DTC],2025-048B,2026-07-11T13:58:36.964992,15.70807603,.00021539,42.9996,293.3491,282.1937,77.8689,0,U,63184,999,7800,.41186086E-3,.52665E-3,0
STARLINK-11618 [DTC],2025-048C,2026-07-11T07:06:29.741184,15.70879355,.00013441,42.9986,294.6250,225.5479,134.5279,0,U,63185,999,7795,.10399895E-2,.135415E-2,0
STARLINK-11646 [DTC],2025-048D,2026-07-11T17:32:08.026944,15.70857450,.00031755,43.0003,291.8574,297.5277,62.5268,0,U,63186,999,7803,.7942099E-3,.10282E-2,0
STARLINK-11622 [DTC],2025-048E,2026-07-11T09:39:13.485888,15.70830995,.00017851,43.0012,294.5840,271.2362,88.8302,0,U,63187,999,7797,.87507712E-3,.113337E-2,0
STARLINK-11642 [DTC],2025-048F,2026-07-11T07:37:04.940256,15.70897209,.0001237,42.9989,294.7948,261.6642,98.4086,0,U,63188,999,7796,.79703976E-3,.10335E-2,0
STARLINK-11639 [DTC],2025-048G,2026-07-11T18:02:43.022976,15.70860602,.00021622,43.0000,292.0263,288.4755,71.5878,0,U,63189,999,7803,.85614698E-3,.110985E-2,0
STARLINK-11637 [DTC],2025-048H,2026-07-10T18:24:56.425536,15.70847116,.00017062,42.9987,298.4197,256.9139,103.1538,0,U,63190,999,7787,.58427038E-3,.75226E-3,0
STARLINK-11647 [DTC],2025-048J,2026-07-11T14:51:57.016224,15.70836572,.00028785,42.9989,292.7477,304.6043,55.4553,0,U,63191,999,7801,.52606257E-3,.67602E-3,0
STARLINK-11643 [DTC],2025-048K,2026-07-11T07:29:26.267712,15.70891569,.00017745,43.0000,294.7495,271.1988,88.8676,0,U,63192,999,7796,.80842007E-3,.104829E-2,0
STARLINK-11635 [DTC],2025-048L,2026-07-11T06:58:51.253536,15.70858944,.00018245,42.9996,294.5798,282.9041,77.1623,0,U,63193,999,7796,.79587283E-3,.103031E-2,0
STARLINK-11636 [DTC],2025-048M,2026-07-11T12:19:24.771360,15.70827688,.00021148,42.9996,293.6855,288.1246,71.9391,0,U,63194,999,7799,.11177243E-2,.145436E-2,0
STARLINK-11631 [DTC],2025-048N,2026-07-11T17:24:40.583808,15.70874881,.00014798,42.9997,292.7060,273.8244,86.2455,0,U,63195,999,7802,.14300836E-2,.187523E-2,0
STARLINK-32946,2025-048P,2026-07-11T04:28:46.731936,15.27588745,.00014651,42.9999,111.8838,287.6127,72.4565,0,U,63196,999,7593,.40674048E-3,.1095E-3,0
STARLINK-32960,2025-048Q,2026-07-11T03:52:27.361920,15.27580699,.00020319,43.0026,108.1828,262.4163,97.6458,0,U,63197,999,7597,.37301114E-3,.10017E-3,0
STARLINK-32904,2025-048R,2026-07-11T02:56:56.563296,15.27581365,.00018139,42.9976,107.8829,251.5932,108.4722,0,U,63198,999,7597,.39937713E-3,.10744E-3,0
STARLINK-32931,2025-048S,2026-07-11T03:32:06.025344,15.27594566,.00016443,43.0036,108.0765,267.7590,92.3073,0,U,63199,999,7597,.38799428E-3,.10434E-3,0
STARLINK-32934,2025-048T,2026-07-11T03:06:11.996064,15.27593880,.0001588,42.9991,107.9365,265.7865,94.2805,0,U,63200,999,7597,.32109363E-3,.8588E-4,0
STARLINK-32938,2025-048U,2026-07-11T03:37:39.449856,15.27589280,.00013961,43.0030,108.1051,294.2581,65.8124,0,U,63201,999,7597,.50124257E-3,.1356E-3,0
STARLINK-32935,2025-048V,2026-07-11T18:16:31.166112,15.27581189,.00015856,43.0014,104.9469,264.3558,95.7113,0,U,63202,999,7606,.35944465E-3,.9642E-4,0
STARLINK-32930,2025-048W,2026-07-09T23:48:44.289792,15.27603887,.00016435,43.0017,114.8810,270.1855,89.8809,0,U,63203,999,7579,.49648283E-3,.13435E-3,0
QPS-SAR-9 (SUSANOO-I),2025-050A,2026-07-11T16:50:53.726208,15.03376158,.00055665,42.0206,326.7494,304.6138,55.4164,0,U,63205,999,7265,.92968728E-4,.1095E-4,0
SUPERVIEW NEO-3 02,2025-051A,2026-07-11T17:46:54.329376,15.22261135,.00024985,97.4515,271.7585,99.2706,260.8812,0,U,63208,999,7357,.21209442E-3,.481E-4,0
TIANYAN 23,2025-051B,2026-07-11T18:52:30.893952,15.50257023,.00035787,97.4514,280.8175,17.6641,342.4734,0,U,63209,999,7417,.39039594E-3,.22015E-3,0
JINJUSAT-1B,2025-052A,2026-07-11T03:40:10.446816,15.34268355,.00037017,97.3980,88.9495,39.3093,320.8418,0,U,63210,999,7377,.31209777E-3,.10279E-3,0
NUSHSAT1,2025-052B,2026-07-11T16:15:32.173344,15.36948419,.00035584,97.3954,90.1288,47.4243,312.7301,0,U,63211,999,7390,.35541146E-3,.12769E-3,0
IOD-1,2025-052C,2026-07-11T16:23:45.921696,15.56753889,.00030254,97.3785,95.1565,106.5023,253.6564,0,U,63212,999,7429,.560465E-3,.40118E-3,0
TEVEL2-4,2025-052D,2026-07-11T16:37:08.151744,15.35484284,.00038373,97.3886,89.1357,58.4014,301.7604,0,U,63213,999,7387,.32035103E-3,.10971E-3,0
TEVEL2-5,2025-052E,2026-07-11T15:36:54.361152,15.35297561,.00038771,97.3876,89.0343,60.2304,299.9325,0,U,63214,999,7386,.3270793E-3,.11136E-3,0
TEVEL2-6,2025-052F,2026-07-11T15:55:28.053696,15.35261289,.00038481,97.3879,89.0323,63.3190,296.8447,0,U,63215,999,7386,.32823927E-3,.11163E-3,0
BOTSAT-1,2025-052G,2026-07-11T15:53:20.671584,15.27562620,.00039958,97.3866,86.2718,64.1041,296.0609,0,U,63216,999,7369,.1949609E-3,.5182E-4,0
TEVEL2-1,2025-052H,2026-07-11T16:49:52.822848,15.34696214,.00044973,97.3853,88.6646,67.0289,293.1429,0,U,63217,999,7385,.31099247E-3,.10384E-3,0
TEVEL2-3,2025-052J,2026-07-11T16:40:48.579744,15.34757646,.00042625,97.3859,88.6837,68.4805,291.6893,0,U,63218,999,7385,.3010029E-3,.10066E-3,0
TEVEL2-2,2025-052K,2026-07-11T16:50:05.939232,15.34706297,.00045235,97.3852,88.6678,67.8714,292.3009,0,U,63219,999,7385,.30397995E-3,.10151E-3,0
AEROCUBE 18A,2025-052L,2026-07-11T15:22:59.114208,15.24732041,.00054331,97.3943,85.8054,55.3426,304.8323,0,U,63220,999,7362,.14790296E-3,.359E-4,0
TRANSPORTER-13 OBJECT M,2025-052M,2026-07-11T15:54:09.480672,15.22096949,.00050681,97.3862,84.3768,68.6298,291.5479,0,U,63221,999,7356,.9926512E-4,.2204E-4,0
AEROCUBE 18B,2025-052N,2026-07-11T16:09:28.833696,15.24632712,.00059794,97.3952,85.8161,58.0352,302.1467,0,U,63222,999,7362,.14844446E-3,.3593E-4,0
DROID.002,2025-052P,2026-07-11T15:26:38.927904,15.22985234,.00056511,97.3912,85.1184,64.6007,295.5814,0,U,63223,999,7359,.15829253E-3,.3651E-4,0
TOMORROW-S6,2025-052R,2026-07-11T16:22:26.136480,15.22623986,.00067373,97.3986,85.2077,59.8013,300.3890,0,U,63225,999,7357,.11675276E-3,.2646E-4,0
ETIHAD-SAT,2025-052S,2026-07-11T16:20:49.172352,15.22277280,.00068454,97.3937,84.8127,66.1392,294.0561,0,U,63226,999,7356,.10782916E-3,.2413E-4,0
TRANSPORTER-13 OBJECT U,2025-052U,2026-07-11T15:46:01.471008,15.23841379,.00067903,97.3896,85.0543,72.2776,287.9202,0,U,63228,999,7359,.14760775E-3,.3489E-4,0
SPACEEYE-T1,2025-052V,2026-07-11T15:27:58.271616,15.22695134,.00065264,97.3927,84.7974,73.0244,287.1708,0,U,63229,999,7356,.12761729E-3,.2905E-4,0
ION SCV-017,2025-052W,2026-07-11T15:51:51.346944,15.27997897,.00207821,97.3884,87.6295,327.5570,32.4391,0,U,63230,999,7377,.97984347E-4,.2616E-4,0
M-SEL/CORTEZ,2025-052X,2026-07-11T15:42:43.984800,15.26525854,.00066808,97.3896,85.9243,72.4245,287.7724,0,U,63231,999,7365,.19984565E-3,.515E-4,0
SPHINX/FRAZIER,2025-052Y,2026-07-11T16:32:44.132352,15.24239499,.00075509,97.3928,85.3566,72.0481,288.1579,0,U,63232,999,7360,.15326007E-3,.3669E-4,0
LIZZIESAT-3 (LS-3),2025-052Z,2026-07-11T16:26:31.642944,15.21975868,.00077646,97.3891,84.0932,79.6899,280.5213,0,U,63233,999,7353,.12277561E-3,.2733E-4,0
TOMORROW-S5,2025-052AA,2026-07-11T15:41:24.529632,15.22667859,.00085497,97.3964,84.9603,71.8545,288.3622,0,U,63234,999,7356,.12460008E-3,.2833E-4,0
